ONEWEB-0520             
1 54138U 22138AB  24352.56656917 -.00000340  00000+0 -88225-3 0  9994
2 54138  87.9176  53.6473 0001418  93.9804 266.1491 13.19725845104724
ONEWEB-0521             
1 54139U 22138AC  24352.44810906  .00000086  00000+0  18219-3 0  9993
2 54139  87.9174  53.6611 0002064  98.8156 261.3211 13.19728224104652
ONEWEB-0522             
1 54140U 22138AD  24352.57920334  .00000118  00000+0  26184-3 0  9992
2 54140  87.9172  53.6363 0001708 101.7321 258.4003 13.19728941104717
ONEWEB-0523             
1 54141U 22138AE  24352.59677479  .00000076  00000+0  15576-3 0  9990
2 54141  87.9255  23.1881 0002600 111.8305 248.3105 13.20773927108028
ONEWEB-0524             
1 54142U 22138AF  24352.66145642  .00000127  00000+0  28129-3 0  9996
2 54142  87.9253  23.1777 0001748 129.3052 230.8236 13.20772584108036
ONEWEB-0525             
1 54143U 22138AG  24352.44652563 -.00000014  00000+0 -67525-4 0  9999
2 54143  87.9177  53.6768 0001544  91.0140 269.1170 13.19723643104710
ONEWEB-0526             
1 54144U 22138AH  24352.70715696  .00000025  00000+0  28921-4 0  9993
2 54144  87.9172  53.6168 0001622 100.1876 259.9439 13.19728230105594
ONEWEB-0529             
1 54145U 22138AJ  24352.55867002  .00000035  00000+0  54549-4 0  9992
2 54145  87.9181  53.6748 0001504  95.3169 264.8136 13.19728486104724
